{
  "type": "FeatureCollection",
  "features": [
    {
      "type": "Feature",
      "properties": {
        "country_code": "ASM",
        "city": "Pago Pago",
        "geoname_id": "5881576",
        "downloaders": {
          "size": 26,
          "mobile": 0,
          "satellite": 26,
          "tor": 0,
          "tor_exit_nodes": 0,
          "vpn": 0,
          "relay": 0,
          "proxy": 0,
          "hosting": 0,
          "service": 0
        },
        "uploaders": {
          "size": 20,
          "mobile": 0,
          "satellite": 20,
          "tor": 0,
          "tor_exit_nodes": 0,
          "vpn": 0,
          "relay": 0,
          "proxy": 0,
          "hosting": 0,
          "service": 0
        }
      },
      "geometry": {
        "type": "Point",
        "coordinates": [
          -170.7025,
          -14.27806
        ]
      }
    }
  ],
  "swarm": "downloaders",
  "field": "size",
  "geopivot": "country_code",
  "file_a": "./data/andor-112-2022-cumulative.geojson",
  "file_b": "./data/andor-112-2025-cumulative.geojson"
}